{"type": "FeatureCollection", "features": [ {"type": "Feature", "properties": {"norad_id": 42741, "name": "EUTELSAT 172B", "group": "eutelsat", "lat": 0.020505004932427684, "lon": 139.4089259514357, "alt_km": 35785.48444426195, "timestamp": "2025-12-22T15:43:48.656329+00:00", "meta": {"OBJECT_NAME": "EUTELSAT 172B", "OBJECT_ID": "2017-029B", "EPOCH": "2025-12-22T03:42:39.943872", "MEAN_MOTION": 1.00271357, "ECCENTRICITY": 2.092e-05, "INCLINATION": 0.0308, "RA_OF_ASC_NODE": 122.011, "ARG_OF_PERICENTER": 339.14, "MEAN_ANOMALY": 217.4843, "EPHEMERIS_TYPE": 0, "CLASSIFICATION_TYPE": "U", "NORAD_CAT_ID": 42741, "ELEMENT_SET_NO": 999, "REV_AT_EPOCH": 3195, "BSTAR": 0, "MEAN_MOTION_DOT": 1.6e-07, "MEAN_MOTION_DDOT": 0}, "tle": {"line1": "1 42741U 17029B   25356.15462898  .00000016  00000+0  00000+0 0  9996", "line2": "2 42741   0.0308 122.0110 0000209 339.1400 217.4843  1.00271357 31952"}}, "geometry": {"type": "Point", "coordinates": [139.4089259514357, 0.020505004932427684]}}, {"type": "Feature", "properties": {"norad_id": 44334, "name": "EUTELSAT 7C", "group": "eutelsat", "lat": 0.015679680867610468, "lon": -25.58207752738849, "alt_km": 35783.869137399146, "timestamp": "2025-12-22T15:43:48.656341+00:00", "meta": {"OBJECT_NAME": "EUTELSAT 7C", "OBJECT_ID": "2019-034B", "EPOCH": "2025-12-22T03:54:38.524896", "MEAN_MOTION": 1.00270429, "ECCENTRICITY": 0.00031022, "INCLINATION": 0.0729, "RA_OF_ASC_NODE": 180.3118, "ARG_OF_PERICENTER": 75.1349, "MEAN_ANOMALY": 261.1679, "EPHEMERIS_TYPE": 0, "CLASSIFICATION_TYPE": "U", "NORAD_CAT_ID": 44334, "ELEMENT_SET_NO": 999, "REV_AT_EPOCH": 506, "BSTAR": 0, "MEAN_MOTION_DOT": 7e-07, "MEAN_MOTION_DDOT": 0}, "tle": {"line1": "1 44334U 19034B   25356.16294589  .00000070  00000+0  00000+0 0  9995", "line2": "2 44334   0.0729 180.3118 0003102  75.1349 261.1679  1.00270429  5063"}}, "geometry": {"type": "Point", "coordinates": [-25.58207752738849, 0.015679680867610468]}}, {"type": "Feature", "properties": {"norad_id": 44624, "name": "EUTELSAT 5 WEST B", "group": "eutelsat", "lat": -0.03307661836077898, "lon": -37.56679110627866, "alt_km": 35778.2436310166, "timestamp": "2025-12-22T15:43:48.656353+00:00", "meta": {"OBJECT_NAME": "EUTELSAT 5 WEST B", "OBJECT_ID": "2019-067A", "EPOCH": "2025-12-22T06:17:32.611200", "MEAN_MOTION": 1.00271351, "ECCENTRICITY": 0.00030366, "INCLINATION": 0.0656, "RA_OF_ASC_NODE": 338.4706, "ARG_OF_PERICENTER": 292.1222, "MEAN_ANOMALY": 269.8665, "EPHEMERIS_TYPE": 0, "CLASSIFICATION_TYPE": "U", "NORAD_CAT_ID": 44624, "ELEMENT_SET_NO": 999, "REV_AT_EPOCH": 2266, "BSTAR": 0, "MEAN_MOTION_DOT": -2e-07, "MEAN_MOTION_DDOT": 0}, "tle": {"line1": "1 44624U 19067A   25356.26218300 -.00000020  00000+0  00000+0 0  9997", "line2": "2 44624   0.0656 338.4706 0003036 292.1222 269.8665  1.00271351 22660"}}, "geometry": {"type": "Point", "coordinates": [-37.56679110627866, -0.03307661836077898]}}, {"type": "Feature", "properties": {"norad_id": 45027, "name": "EUTELSAT KONNECT", "group": "eutelsat", "lat": -0.0713681574497134, "lon": -25.381614046610693, "alt_km": 35783.08817826868, "timestamp": "2025-12-22T15:43:48.656364+00:00", "meta": {"OBJECT_NAME": "EUTELSAT KONNECT", "OBJECT_ID": "2020-005B", "EPOCH": "2025-12-22T03:54:38.524896", "MEAN_MOTION": 1.00271218, "ECCENTRICITY": 0.00013186, "INCLINATION": 0.0707, "RA_OF_ASC_NODE": 94.5088, "ARG_OF_PERICENTER": 184.2033, "MEAN_ANOMALY": 238.124, "EPHEMERIS_TYPE": 0, "CLASSIFICATION_TYPE": "U", "NORAD_CAT_ID": 45027, "ELEMENT_SET_NO": 999, "REV_AT_EPOCH": 2256, "BSTAR": 0, "MEAN_MOTION_DOT": 7.1e-07, "MEAN_MOTION_DDOT": 0}, "tle": {"line1": "1 45027U 20005B   25356.16294589  .00000071  00000+0  00000+0 0  9996", "line2": "2 45027   0.0707  94.5088 0001318 184.2033 238.1240  1.00271218 22569"}}, "geometry": {"type": "Point", "coordinates": [-25.381614046610693, -0.0713681574497134]}}, {"type": "Feature", "properties": {"norad_id": 49056, "name": "EUTELSAT QUANTUM", "group": "eutelsat", "lat": 0.008521880048258702, "lon": 15.150546547568647, "alt_km": 35787.018142488334, "timestamp": "2025-12-22T15:43:48.656376+00:00", "meta": {"OBJECT_NAME": "EUTELSAT QUANTUM", "OBJECT_ID": "2021-069B", "EPOCH": "2025-12-22T03:07:13.338336", "MEAN_MOTION": 1.00271936, "ECCENTRICITY": 0.00034622, "INCLINATION": 0.0106, "RA_OF_ASC_NODE": 358.3448, "ARG_OF_PERICENTER": 282.7947, "MEAN_ANOMALY": 264.313, "EPHEMERIS_TYPE": 0, "CLASSIFICATION_TYPE": "U", "NORAD_CAT_ID": 49056, "ELEMENT_SET_NO": 999, "REV_AT_EPOCH": 1615, "BSTAR": 0, "MEAN_MOTION_DOT": 1.48e-06, "MEAN_MOTION_DDOT": 0}, "tle": {"line1": "1 49056U 21069B   25356.13001549  .00000148  00000+0  00000+0 0  9997", "line2": "2 49056   0.0106 358.3448 0003462 282.7947 264.3130  1.00271936 16153"}}, "geometry": {"type": "Point", "coordinates": [15.150546547568647, 0.008521880048258702]}}, {"type": "Feature", "properties": {"norad_id": 53765, "name": "EUTELSAT KONNECT VHTS", "group": "eutelsat", "lat": -0.060399229750702166, "lon": -29.829439106933783, "alt_km": 35787.570269673, "timestamp": "2025-12-22T15:43:48.656388+00:00", "meta": {"OBJECT_NAME": "EUTELSAT KONNECT VHTS", "OBJECT_ID": "2022-110A", "EPOCH": "2025-12-21T13:12:40.176000", "MEAN_MOTION": 1.00270894, "ECCENTRICITY": 0.0002618, "INCLINATION": 0.0618, "RA_OF_ASC_NODE": 99.3714, "ARG_OF_PERICENTER": 133.7511, "MEAN_ANOMALY": 58.1537, "EPHEMERIS_TYPE": 0, "CLASSIFICATION_TYPE": "U", "NORAD_CAT_ID": 53765, "ELEMENT_SET_NO": 999, "REV_AT_EPOCH": 504, "BSTAR": 0, "MEAN_MOTION_DOT": 4e-07, "MEAN_MOTION_DDOT": 0}, "tle": {"line1": "1 53765U 22110A   25355.55046500  .00000040  00000+0  00000+0 0  9999", "line2": "2 53765   0.0618  99.3714 0002618 133.7511  58.1537  1.00270894  5043"}}, "geometry": {"type": "Point", "coordinates": [-29.829439106933783, -0.060399229750702166]}}, {"type": "Feature", "properties": {"norad_id": 54048, "name": "EUTELSAT HOTBIRD 13F", "group": "eutelsat", "lat": 0.026796784650093466, "lon": -19.609758442215526, "alt_km": 35777.24426192661, "timestamp": "2025-12-22T15:43:48.656400+00:00", "meta": {"OBJECT_NAME": "EUTELSAT HOTBIRD 13F", "OBJECT_ID": "2022-134A", "EPOCH": "2025-12-21T21:49:07.084128", "MEAN_MOTION": 1.00271763, "ECCENTRICITY": 0.00022808, "INCLINATION": 0.0525, "RA_OF_ASC_NODE": 292.4073, "ARG_OF_PERICENTER": 71.4737, "MEAN_ANOMALY": 67.1177, "EPHEMERIS_TYPE": 0, "CLASSIFICATION_TYPE": "U", "NORAD_CAT_ID": 54048, "ELEMENT_SET_NO": 999, "REV_AT_EPOCH": 1160, "BSTAR": 0, "MEAN_MOTION_DOT": 1.09e-06, "MEAN_MOTION_DDOT": 0}, "tle": {"line1": "1 54048U 22134A   25355.90910977  .00000109  00000+0  00000+0 0  9993", "line2": "2 54048   0.0525 292.4073 0002280  71.4737  67.1177  1.00271763 11607"}}, "geometry": {"type": "Point", "coordinates": [-19.609758442215526, 0.026796784650093466]}}, {"type": "Feature", "properties": {"norad_id": 54225, "name": "EUTELSAT HOTBIRD 13G", "group": "eutelsat", "lat": 0.027462959754176026, "lon": -19.604747010689927, "alt_km": 35793.15401108686, "timestamp": "2025-12-22T15:43:48.656412+00:00", "meta": {"OBJECT_NAME": "EUTELSAT HOTBIRD 13G", "OBJECT_ID": "2022-146A", "EPOCH": "2025-12-21T21:49:07.084128", "MEAN_MOTION": 1.0026968, "ECCENTRICITY": 0.00016162, "INCLINATION": 0.0526, "RA_OF_ASC_NODE": 226.0316, "ARG_OF_PERICENTER": 309.1853, "MEAN_ANOMALY": 255.7772, "EPHEMERIS_TYPE": 0, "CLASSIFICATION_TYPE": "U", "NORAD_CAT_ID": 54225, "ELEMENT_SET_NO": 999, "REV_AT_EPOCH": 568, "BSTAR": 0, "MEAN_MOTION_DOT": 1.09e-06, "MEAN_MOTION_DDOT": 0}, "tle": {"line1": "1 54225U 22146A   25355.90910977  .00000109  00000+0  00000+0 0  9993", "line2": "2 54225   0.0526 226.0316 0001616 309.1853 255.7772  1.00269680  5682"}}, "geometry": {"type": "Point", "coordinates": [-19.604747010689927, 0.027462959754176026]}}, {"type": "Feature", "properties": {"norad_id": 54259, "name": "EUTELSAT 10B", "group": "eutelsat", "lat": -0.0602240569980853, "lon": -22.582756657306252, "alt_km": 35787.45291632955, "timestamp": "2025-12-22T15:43:48.656423+00:00", "meta": {"OBJECT_NAME": "EUTELSAT 10B", "OBJECT_ID": "2022-157A", "EPOCH": "2025-12-22T04:39:12.028608", "MEAN_MOTION": 1.00272829, "ECCENTRICITY": 7.418e-05, "INCLINATION": 0.0598, "RA_OF_ASC_NODE": 96.7964, "ARG_OF_PERICENTER": 3.3264, "MEAN_ANOMALY": 70.6993, "EPHEMERIS_TYPE": 0, "CLASSIFICATION_TYPE": "U", "NORAD_CAT_ID": 54259, "ELEMENT_SET_NO": 999, "REV_AT_EPOCH": 1125, "BSTAR": 0, "MEAN_MOTION_DOT": 9.1e-07, "MEAN_MOTION_DDOT": 0}, "tle": {"line1": "1 54259U 22157A   25356.19388922  .00000091  00000+0  00000+0 0  9993", "line2": "2 54259   0.0598  96.7964 0000741   3.3264  70.6993  1.00272829 11254"}}, "geometry": {"type": "Point", "coordinates": [-22.582756657306252, -0.0602240569980853]}}, {"type": "Feature", "properties": {"norad_id": 59346, "name": "EUTELSAT 36D", "group": "eutelsat", "lat": -0.014741139065069712, "lon": 3.2514014893861423, "alt_km": 35783.36199915112, "timestamp": "2025-12-22T15:43:48.656434+00:00", "meta": {"OBJECT_NAME": "EUTELSAT 36D", "OBJECT_ID": "2024-059A", "EPOCH": "2025-12-22T01:29:38.558112", "MEAN_MOTION": 1.00269849, "ECCENTRICITY": 7.6e-05, "INCLINATION": 0.0226, "RA_OF_ASC_NODE": 30.2034, "ARG_OF_PERICENTER": 334.9815, "MEAN_ANOMALY": 143.951, "EPHEMERIS_TYPE": 0, "CLASSIFICATION_TYPE": "U", "NORAD_CAT_ID": 59346, "ELEMENT_SET_NO": 999, "REV_AT_EPOCH": 637, "BSTAR": 0, "MEAN_MOTION_DOT": 0, "MEAN_MOTION_DDOT": 0}, "tle": {"line1": "1 59346U 24059A   25356.06225183  .00000000  00000+0  00000+0 0  9993", "line2": "2 59346   0.0226  30.2034 0000760 334.9815 143.9510  1.00269849  6375"}}, "geometry": {"type": "Point", "coordinates": [3.2514014893861423, -0.014741139065069712]}}]}